FLOCK 4A-3              
1 44081U 19018D   20090.09914135  .00002660  00000-0  11755-3 0  9995
2 44081  97.4169 151.7816 0014805  86.1129 274.1799 15.22491426 55329
FLOCK 4A-4              
1 44082U 19018E   20090.14817520  .00001423  00000-0  64207-4 0  9999
2 44082  97.4178 151.8769 0014890  86.1667 274.1271 15.22556318 55337
ASTROCAST 0.2           
1 44083U 19018F   20090.43841523  .00000685  00000-0  33487-4 0  9997
2 44083  97.4299 152.5443 0014927  89.7496 270.5450 15.21498749 55363
LEMUR-2-JOHANLORAN      
1 44084U 19018G   20090.16584756  .00002104  00000-0  92927-4 0  9992
2 44084  97.4187 152.0298 0015097  88.7301 271.5665 15.22741177 55340
LEMUR-2-BEAUDACIOUS     
1 44085U 19018H   20090.16447888  .00001217  00000-0  55155-4 0  9993
2 44085  97.4189 152.0321 0015164  88.7584 271.5390 15.22670794 55349
LEMUR-2-ELHAM           
1 44086U 19018J   20090.13388792  .00002131  00000-0  93518-4 0  9990
2 44086  97.4193 152.0969 0015218  89.6626 270.6354 15.22956816 55342
LEMUR-2-VICTOR-ANDREW   
1 44087U 19018K   20090.12469904  .00002532  00000-0  11042-3 0  9991
2 44087  97.4194 152.1083 0015074  90.3916 269.9048 15.22992995 55342
FLOCK 4A-17             
1 44088U 19018L   20090.29299486  .00000805  00000-0  37504-4 0  9999
2 44088  97.4184 152.1632 0015378  89.8832 270.4167 15.22655289 55351
FLOCK 4A-18             
1 44089U 19018M   20090.09887974  .00001368  00000-0  61664-4 0  9992
2 44089  97.4186 151.9741 0015405  91.0383 269.2619 15.22635881 55320
FLOCK 4A-19             
1 44090U 19018N   20090.39871021  .00000590  00000-0  28241-4 0  9993
2 44090  97.4184 152.3235 0015346  90.5717 269.7278 15.22754386 55375
FLOCK 4A-20             
1 44091U 19018P   20090.40931402  .00001706  00000-0  75943-4 0  9997
2 44091  97.4180 152.3227 0015397  91.2221 269.0779 15.22741671 55379
FLOCK 4A-8              
1 44092U 19018Q   20090.30176125  .00000921  00000-0  42357-4 0  9991
2 44092  97.4188 152.3094 0012918  93.8680 266.4034 15.22798343 55365
FLOCK 4A-7              
1 44093U 19018R   20090.31864738  .00000683  00000-0  32329-4 0  9990
2 44093  97.4195 152.3144 0012965  94.3191 265.9528 15.22635205 55364
FLOCK 4A-6              
1 44094U 19018S   20090.43986474  .00001097  00000-0  50083-4 0  9993
2 44094  97.4190 152.4374 0012893  94.5976 265.6734 15.22641155 55399
FLOCK 4A-5              
1 44095U 19018T   20090.28880197  .00000672  00000-0  31790-4 0  9994
2 44095  97.4191 152.3400 0012992  95.9116 264.3601 15.22722726 55361
FLOCK 4A-11             
1 44096U 19018U   20090.27887017  .00000636  00000-0  30192-4 0  9997
2 44096  97.4191 152.3497 0013080  96.9235 263.3489 15.22762684 55360
FLOCK 4A-10             
1 44097U 19018V   20090.15087687  .00000657  00000-0  31133-4 0  9999
2 44097  97.4191 152.2028 0013268  97.9914 262.2828 15.22742877 55359
FLOCK 4A-9              
1 44098U 19018W   20090.14390314  .00000608  00000-0  28970-4 0  9994
2 44098  97.4193 152.2285 0013230  98.9225 261.3510 15.22791989 55358
FLOCK 4A-16             
1 44099U 19018X   20090.13938606  .00000633  00000-0  30092-4 0  9992
2 44099  97.4187 152.2090 0013462  99.4754 260.8005 15.22754764 55359
FLOCK 4A-15             
1 44100U 19018Y   20090.12599428  .00001236  00000-0  55810-4 0  9994
2 44100  97.4188 152.2277 0013645 100.8076 259.4697 15.22791729 55349
FLOCK 4A-14             
1 44101U 19018Z   20090.42437479  .00001162  00000-0  52227-4 0  9992
2 44101  97.4180 152.5778 0013615 102.1814 258.0948 15.23075279 55400
FLOCK 4A-13             
1 44102U 19018AA  20090.12805412  .00001180  00000-0  53397-4 0  9995
2 44102  97.4185 152.2109 0014052 101.6534 258.6280 15.22805010 55341
AISTECHSAT-3            
1 44103U 19018AB  20090.46033775  .00000698  00000-0  32564-4 0  9994
2 44103  97.4165 152.6859 0015289 103.4924 313.5390 15.23033615 55418
AIS & APRS & ARIS & R/B 
1 44104U 19018AC  20090.15191327  .00000820  00000-0  28692-4 0  9993
2 44104  97.4709 159.3030 0059596 133.4128 227.2096 15.30918894 55677
BLUEWALKER 1            
1 44105U 19018AD  20090.42436694  .00001080  00000-0  36591-4 0  9999
2 44105  97.4809 160.1665 0059217 137.3756 223.2103 15.31247824 55723
FLOCK 4A-12             
1 44108U 19018AE  20090.43572078  .00000614  00000-0  29335-4 0  9990
2 44108  97.4185 152.4453 0012890  95.1522 275.7395 15.22695311 55295
M6P                     
1 44109U 19018AF  20090.50349633  .00001860  00000-0  62131-4 0  9993
2 44109  97.4710 159.3354 0060781 130.5259 287.6904 15.30602030 55506
O3B FM20                
1 44112U 19020A   20088.65554064 -.00000020  00000-0  00000+0 0  9999
2 44112   0.0453   7.3725 0002696  28.6171 324.0280  5.00116184 18002
O3B FM19                
1 44113U 19020B   20089.44260652 -.00000020  00000-0  00000+0 0  9995
2 44113   0.0298 321.0335 0004213  56.7115 342.2695  5.00116101 18034
O3B FM17                
1 44114U 19020C   20089.96212860 -.00000019  00000-0  00000-0 0  9990
2 44114   0.0462   7.1060 0002916   6.2003 346.7013  5.00116050 18068
O3B FM18                
1 44115U 19020D   20090.10865934 -.00000019  00000-0  00000-0 0  9995
2 44115   0.0447   7.3746 0002840   2.3666 350.2643  5.00115632 18078
ARABSAT-6A              
1 44186U 19021A   20089.86577419  .00000153  00000-0  00000-0 0  9991
2 44186   0.0558 343.0324 0003187 339.0430 207.7695  1.00271748  3439
BEIDOU-3 IGSO-1         
1 44204U 19023A   20090.22325134 -.00000181  00000-0  10000-3 0  9997
2 44204  55.3835  61.7843 0013623 200.3256 120.1909  1.00260169  3591
TIANHUI 2-01A           
1 44207U 19024A   20090.48542800  .00000268  00000-0  17016-4 0  9990
2 44207  97.4531  97.2916 0002013  81.9733  69.7981 15.16772137 50857
TIANHUI 2-01B           
1 44209U 19024C   20090.48600347  .00000424  00000-0  24949-4 0  9990
2 44209  97.4543  97.2961 0001837  98.1113  56.8016 15.16772473 50856
AFOTEC-1 (FALCON ODE)   
1 44225U 19026A   20090.26506570  .00000702  00000-0  39349-4 0  9998
2 44225  40.0196 104.2667 0006178 189.5167 170.5518 15.20672817 50230
SPARC-1                 
1 44226U 19026B   20090.27397754  .00000961  00000-0  49072-4 0  9993
2 44226  40.0205 100.7595 0010430 181.1520 178.9256 15.22003021 50272
HARBINGER (ICEYE-X3)    
1 44229U 19026E   20090.47291724  .00000389  00000-0  25291-4 0  9999
2 44229  40.0212 102.2957 0007275 181.2921 178.7863 15.20916720 50270
BEIDOU-2 G8             
1 44231U 19027A   20090.26303541 -.00000248  00000-0  00000-0 0  9993
2 44231   1.1652 295.6273 0006189 288.4675 203.2573  1.00273376  3339
RISAT-2B                
1 44233U 19028A   20090.45183053  .00000173  00000-0  20549-4 0  9991
2 44233  37.0007  85.1988 0005841  13.0260 347.0635 14.98968068 47170
STARLINK-31             
1 44235U 19029A   20090.50001157 -.00032121  00000-0 -18324-2 0  9990
2 44235  53.0022 208.8584 0001521 130.0286 184.1063 15.12157663 48277
STARLINK-22             
1 44236U 19029B   20090.50001157 -.00031112  00000-0 -40965-3 0  9997
2 44236  53.0034 192.4431 0008905 321.8217 101.8069 15.57488760 48497
STARLINK-23             
1 44237U 19029C   20090.50001157 -.00008457  00000-0 -46838-3 0  9999
2 44237  52.9983 208.6410 0001507 118.5763 159.5415 15.12148037 47152
STARLINK-24             
1 44238U 19029D   20089.81812282  .00003587  00000-0  21970-3 0  9998
2 44238  52.9973 210.8765 0001629 109.2516 250.8652 15.12644046 46987
STARLINK-25             
1 44239U 19029E   20090.25001157  .00341957  00000-0  18754-1 0  9990
2 44239  53.0067 210.2487 0001535 129.0969 317.2879 15.12050969  1768
STARLINK-26             
1 44240U 19029F   20090.25001157  .00253741  00000-0  54068-2 0  9994
2 44240  53.0081 182.1572 0002017 113.1474 245.5334 15.43467133  1778
STARLINK-27             
1 44241U 19029G   20090.41668981  .00019534  00000-0  11350-2 0  9994
2 44241  53.0051 209.3691 0001408 104.9025 133.3479 15.12117887 47131
STARLINK-28             
1 44242U 19029H   20090.25001157  .00162664  00000-0  21229-2 0  9992
2 44242  52.9938 187.6131 0001372  63.3569 177.3312 15.57647970 47417
STARLINK-29             
1 44243U 19029J   20090.50001157  .00020509  00000-0  28268-3 0  9993
2 44243  52.9972 134.8444 0009030 318.1166  38.9785 15.57184852 48164
STARLINK-30             
1 44244U 19029K   20090.50001157  .00003184  00000-0  19956-3 0  9998
2 44244  53.0008 208.5275 0001405 114.3611 103.7764 15.12146752 47117
STARLINK-21             
1 44245U 19029L   20090.25001157  .00159298  00000-0  89655-2 0  9991
2 44245  52.9977 209.8504 0001379 109.0127 271.3648 15.12082476  1769
STARLINK-33             
1 44247U 19029N   20090.25001157  .00379131  00000-0  48554-2 0  9996
2 44247  53.0050 189.2173 0001239  53.1733 170.7935 15.57373888  1776
STARLINK-34             
1 44248U 19029P   20090.25001157  .01482597  00000-0  30551-1 0  9996
2 44248  53.0015 198.7597 0001253  73.1736 233.0988 15.42376048 47196
STARLINK-61             
1 44249U 19029Q   20090.00001157  .00036270  00000-0  17737-2 0  9994
2 44249  53.0017 201.0694 0008778 120.7010 277.6493 15.17871075  1836
STARLINK-36             
1 44250U 19029R   20090.25001157  .00277382  00000-0  15353-1 0  9995
2 44250  52.9997 209.7575 0001286 114.5001 211.9515 15.12055653  1752
STARLINK-37             
1 44251U 19029S   20090.25001157  .00199092  00000-0  11141-1 0  9998
2 44251  52.9818 208.9239 0001238 106.7737 225.6808 15.12073875  1763
STARLINK-71             
1 44252U 19029T   20090.33334491  .00354962  00000-0  19416-1 0  9990
2 44252  53.0002 208.5233 0001679 112.8165  61.5625 15.12078504 47064
STARLINK-39             
1 44253U 19029U   20090.41668981 -.00001100  00000-0 -46024-4 0  9997
2 44253  53.0048 209.3327 0001386 108.8957 117.3602 15.12123249 47115
STARLINK-32             
1 44254U 19029V   20090.33334491  .00233244  00000-0  12983-1 0  9993
2 44254  52.9984 209.3888 0001406 111.4792 332.7642 15.12084272 47079
